XRISM                   
1 57800U 23137A   24077.56608489  .00004197  00000+0  32352-3 0  9990
2 57800  31.0021 235.2727 0010155  21.5384 338.5677 14.99931257 28832
